<?xml version="1.0" ?>
<osm version="0.6" generator="GSWriter">
	<node id="-1013" action="modify" visible="true" lat="0.0" lon="0.0">
		<tag k="altitude" v="300"/>
		<tag k="area" v="100"/>
		<tag k="gs" v="origin"/>
	</node>
	<node id="-1014" action="modify" visible="true" lat="0.00835508172" lon="0.00940985911">
		<tag k="gs" v="globalconfig"/>
		<tag k="name" v="Simply drive straight in the merging scenario"/>
		<tag k="lanelet" v="maps/interaction_maps/DR_CHN_Merging_ZS.osm"/>
		<tag k="collision" v="yes"/>
		<tag k="mutate" v="no"/>
		<tag k="timeout" v="20"/>
		<tag k="version" v="2.0"/>
	</node>
	<node id="-1018" action="modify" visible="true" lat="0.00861226435" lon="0.00907512695"/>
	<node id="-1019" action="modify" visible="true" lat="0.00855672357" lon="0.00989771443"/>
	<way id="-1017" action="modify" visible="true">
		<nd ref="-1018"/>
		<nd ref="-1019"/>
		<tag k="gs" v="route"/>
		<tag k="name" v="example_route"/>
	</way>
	<node id="-1016" action="modify" visible="true" lat="0.00861980361" lon="0.00904596863">
		<tag k="btree" v="drive.btree"/>
		<tag k="btype" v="SDV"/>
		<tag k="model" v="light_vehicle"/>
		<tag k="name" v="v1"/>
		<tag k="route" v="example_route"/>
		<tag k="usespeedprofile" v="no"/>
		<tag k="vid" v="1"/>
		<tag k="yaw" v="17"/>
		<tag k="gs" v="vehicle"/>
		<tag k="cycles" v="1"/>
	</node>
	<node id="-1023" action="modify" visible="true" lat="0.00853697793" lon="0.00931834926"/>
	<node id="-1024" action="modify" visible="true" lat="0.00859905216" lon="0.01019423044"/>
	<way id="-1022" action="modify" visible="true">
		<nd ref="-1023"/>
		<nd ref="-1024"/>
		<tag k="gs" v="route"/>
		<tag k="name" v="merging_route"/>
	</way>
	<node id="-1021" action="modify" visible="true" lat="0.00854213191" lon="0.00928599957">
		<tag k="btree" v="st_lanechange_driver.btree"/>
		<tag k="btype" v="SDV"/>
		<tag k="model" v="light_vehicle"/>
		<tag k="name" v="v2"/>
		<tag k="route" v="merging_route"/>
		<tag k="usespeedprofile" v="no"/>
		<tag k="vid" v="2"/>
		<tag k="yaw" v="5"/>
		<tag k="gs" v="vehicle"/>
		<tag k="cycles" v="1"/>
	</node>
</osm>
